{"type": "FeatureCollection", "features": [ {"type": "Feature", "properties": {"norad_id": 35797, "name": "IRIDIUM 33 DEB", "group": "iridium-33-debris", "lat": -35.91520989713507, "lon": -39.64951342275769, "alt_km": 633.2562059956008, "timestamp": "2025-12-27T21:25:02.901535+00:00", "meta": {"OBJECT_NAME": "IRIDIUM 33 DEB", "OBJECT_ID": "1997-051SF", "EPOCH": "2025-12-25T04:48:32.062176", "MEAN_MOTION": 14.83087004, "ECCENTRICITY": 0.0015142, "INCLINATION": 86.3371, "RA_OF_ASC_NODE": 324.2466, "ARG_OF_PERICENTER": 108.6966, "MEAN_ANOMALY": 251.5901, "EPHEMERIS_TYPE": 0, "CLASSIFICATION_TYPE": "U", "NORAD_CAT_ID": 35797, "ELEMENT_SET_NO": 999, "REV_AT_EPOCH": 87525, "BSTAR": 0.0019466, "MEAN_MOTION_DOT": 0.00015924, "MEAN_MOTION_DDOT": 0}, "tle": {"line1": "1 35797U 97051SF  25359.20037109  .00015924  00000+0  19466-2 0  9997", "line2": "2 35797  86.3371 324.2466 0015142 108.6966 251.5901 14.83087004875252"}}, "geometry": {"type": "Point", "coordinates": [-39.64951342275769, -35.91520989713507]}}, {"type": "Feature", "properties": {"norad_id": 35806, "name": "IRIDIUM 33 DEB", "group": "iridium-33-debris", "lat": -41.25417376295528, "lon": 10.74084753081208, "alt_km": 704.2406745722565, "timestamp": "2025-12-27T21:25:02.901545+00:00", "meta": {"OBJECT_NAME": "IRIDIUM 33 DEB", "OBJECT_ID": "1997-051SQ", "EPOCH": "2025-12-25T18:31:35.635008", "MEAN_MOTION": 14.5746677, "ECCENTRICITY": 0.00150433, "INCLINATION": 86.344, "RA_OF_ASC_NODE": 14.8893, "ARG_OF_PERICENTER": 35.5825, "MEAN_ANOMALY": 324.6384, "EPHEMERIS_TYPE": 0, "CLASSIFICATION_TYPE": "U", "NORAD_CAT_ID": 35806, "ELEMENT_SET_NO": 999, "REV_AT_EPOCH": 86514, "BSTAR": 0.0012174975, "MEAN_MOTION_DOT": 5.557e-05, "MEAN_MOTION_DDOT": 0}, "tle": {"line1": "1 35806U 97051SQ  25359.77194022  .00005557  00000+0  12175-2 0  9999", "line2": "2 35806  86.3440  14.8893 0015043  35.5825 324.6384 14.57466770865144"}}, "geometry": {"type": "Point", "coordinates": [10.74084753081208, -41.25417376295528]}}, {"type": "Feature", "properties": {"norad_id": 35809, "name": "IRIDIUM 33 DEB", "group": "iridium-33-debris", "lat": -67.32498760430899, "lon": 157.28899876239774, "alt_km": 646.1192344544706, "timestamp": "2025-12-27T21:25:02.901556+00:00", "meta": {"OBJECT_NAME": "IRIDIUM 33 DEB", "OBJECT_ID": "1997-051ST", "EPOCH": "2025-12-21T16:13:39.380736", "MEAN_MOTION": 14.75870585, "ECCENTRICITY": 0.00102664, "INCLINATION": 86.3279, "RA_OF_ASC_NODE": 331.2775, "ARG_OF_PERICENTER": 205.8578, "MEAN_ANOMALY": 154.2129, "EPHEMERIS_TYPE": 0, "CLASSIFICATION_TYPE": "U", "NORAD_CAT_ID": 35809, "ELEMENT_SET_NO": 999, "REV_AT_EPOCH": 86939, "BSTAR": 0.0013721853, "MEAN_MOTION_DOT": 9.452e-05, "MEAN_MOTION_DDOT": 0}, "tle": {"line1": "1 35809U 97051ST  25355.67615024  .00009452  00000+0  13722-2 0  9994", "line2": "2 35809  86.3279 331.2775 0010266 205.8578 154.2129 14.75870585869399"}}, "geometry": {"type": "Point", "coordinates": [157.28899876239774, -67.32498760430899]}}, {"type": "Feature", "properties": {"norad_id": 35846, "name": "IRIDIUM 33 DEB", "group": "iridium-33-debris", "lat": 49.083850553132564, "lon": 56.569613637873346, "alt_km": 739.5121328339883, "timestamp": "2025-12-27T21:25:02.901566+00:00", "meta": {"OBJECT_NAME": "IRIDIUM 33 DEB", "OBJECT_ID": "1997-051SW", "EPOCH": "2025-12-24T21:38:12.688800", "MEAN_MOTION": 14.43199531, "ECCENTRICITY": 0.0019834, "INCLINATION": 86.3738, "RA_OF_ASC_NODE": 53.6502, "ARG_OF_PERICENTER": 132.6503, "MEAN_ANOMALY": 227.6373, "EPHEMERIS_TYPE": 0, "CLASSIFICATION_TYPE": "U", "NORAD_CAT_ID": 35846, "ELEMENT_SET_NO": 999, "REV_AT_EPOCH": 71504, "BSTAR": 0.00052874, "MEAN_MOTION_DOT": 1.8e-05, "MEAN_MOTION_DDOT": 0}, "tle": {"line1": "1 35846U 97051SW  25358.90153575  .00001800  00000+0  52874-3 0  9993", "line2": "2 35846  86.3738  53.6502 0019834 132.6503 227.6373 14.43199531715046"}}, "geometry": {"type": "Point", "coordinates": [56.569613637873346, 49.083850553132564]}}, {"type": "Feature", "properties": {"norad_id": 35848, "name": "IRIDIUM 33 DEB", "group": "iridium-33-debris", "lat": 0.014688735912700139, "lon": 9.30818180789604, "alt_km": 640.6868122789574, "timestamp": "2025-12-27T21:25:02.901577+00:00", "meta": {"OBJECT_NAME": "IRIDIUM 33 DEB", "OBJECT_ID": "1997-051SY", "EPOCH": "2025-12-25T19:04:39.531072", "MEAN_MOTION": 14.78906992, "ECCENTRICITY": 0.00094239, "INCLINATION": 86.3901, "RA_OF_ASC_NODE": 10.2507, "ARG_OF_PERICENTER": 146.078, "MEAN_ANOMALY": 214.1045, "EPHEMERIS_TYPE": 0, "CLASSIFICATION_TYPE": "U", "NORAD_CAT_ID": 35848, "ELEMENT_SET_NO": 999, "REV_AT_EPOCH": 66883, "BSTAR": 0.0016240554, "MEAN_MOTION_DOT": 0.0001201, "MEAN_MOTION_DDOT": 0}, "tle": {"line1": "1 35848U 97051SY  25359.79490198  .00012010  00000+0  16241-2 0  9990", "line2": "2 35848  86.3901  10.2507 0009423 146.0780 214.1045 14.78906992668839"}}, "geometry": {"type": "Point", "coordinates": [9.30818180789604, 0.014688735912700139]}}, {"type": "Feature", "properties": {"norad_id": 35850, "name": "IRIDIUM 33 DEB", "group": "iridium-33-debris", "lat": -24.239782036502305, "lon": -24.295717972307532, "alt_km": 644.5542132843893, "timestamp": "2025-12-27T21:25:02.901587+00:00", "meta": {"OBJECT_NAME": "IRIDIUM 33 DEB", "OBJECT_ID": "1997-051TA", "EPOCH": "2025-12-23T16:51:33.482304", "MEAN_MOTION": 14.79050016, "ECCENTRICITY": 0.00107739, "INCLINATION": 86.3501, "RA_OF_ASC_NODE": 339.2572, "ARG_OF_PERICENTER": 146.4147, "MEAN_ANOMALY": 213.7758, "EPHEMERIS_TYPE": 0, "CLASSIFICATION_TYPE": "U", "NORAD_CAT_ID": 35850, "ELEMENT_SET_NO": 999, "REV_AT_EPOCH": 71519, "BSTAR": 0.001670653, "MEAN_MOTION_DOT": 0.00012399, "MEAN_MOTION_DDOT": 0}, "tle": {"line1": "1 35850U 97051TA  25357.70247086  .00012399  00000+0  16707-2 0  9995", "line2": "2 35850  86.3501 339.2572 0010773 146.4147 213.7758 14.79050016715191"}}, "geometry": {"type": "Point", "coordinates": [-24.295717972307532, -24.239782036502305]}}, {"type": "Feature", "properties": {"norad_id": 35915, "name": "IRIDIUM 33 DEB", "group": "iridium-33-debris", "lat": 20.94937847256114, "lon": -22.565398925489163, "alt_km": 629.2197654684496, "timestamp": "2025-12-27T21:25:02.901597+00:00", "meta": {"OBJECT_NAME": "IRIDIUM 33 DEB", "OBJECT_ID": "1997-051TY", "EPOCH": "2025-12-27T05:06:29.374272", "MEAN_MOTION": 14.81107453, "ECCENTRICITY": 0.0012927, "INCLINATION": 86.3452, "RA_OF_ASC_NODE": 336.3429, "ARG_OF_PERICENTER": 135.7318, "MEAN_ANOMALY": 224.494, "EPHEMERIS_TYPE": 0, "CLASSIFICATION_TYPE": "U", "NORAD_CAT_ID": 35915, "ELEMENT_SET_NO": 999, "REV_AT_EPOCH": 8300, "BSTAR": 0.00212, "MEAN_MOTION_DOT": 0.0001653, "MEAN_MOTION_DDOT": 0}, "tle": {"line1": "1 35915U 97051TY  25361.21283998  .00016530  00000+0  21200-2 0  9995", "line2": "2 35915  86.3452 336.3429 0012927 135.7318 224.4940 14.81107453 83002"}}, "geometry": {"type": "Point", "coordinates": [-22.565398925489163, 20.94937847256114]}}, {"type": "Feature", "properties": {"norad_id": 35918, "name": "IRIDIUM 33 DEB", "group": "iridium-33-debris", "lat": 2.6099958692174017, "lon": 69.47526349407488, "alt_km": 733.5214499842659, "timestamp": "2025-12-27T21:25:02.901607+00:00", "meta": {"OBJECT_NAME": "IRIDIUM 33 DEB", "OBJECT_ID": "1997-051UB", "EPOCH": "2025-12-26T22:48:48.276864", "MEAN_MOTION": 14.51362633, "ECCENTRICITY": 0.002855, "INCLINATION": 86.3998, "RA_OF_ASC_NODE": 69.7152, "ARG_OF_PERICENTER": 124.3713, "MEAN_ANOMALY": 0.7922, "EPHEMERIS_TYPE": 0, "CLASSIFICATION_TYPE": "U", "NORAD_CAT_ID": 35918, "ELEMENT_SET_NO": 999, "REV_AT_EPOCH": 85413, "BSTAR": 0.0012105, "MEAN_MOTION_DOT": 4.869e-05, "MEAN_MOTION_DDOT": 0}, "tle": {"line1": "1 35918U 97051UB  25360.95055876  .00004869  00000+0  12105-2 0  9996", "line2": "2 35918  86.3998  69.7152 0028550 124.3713   0.7922 14.51362633854137"}}, "geometry": {"type": "Point", "coordinates": [69.47526349407488, 2.6099958692174017]}}, {"type": "Feature", "properties": {"norad_id": 35929, "name": "IRIDIUM 33 DEB", "group": "iridium-33-debris", "lat": 44.52020030459637, "lon": -50.94301128695749, "alt_km": 546.9254497568718, "timestamp": "2025-12-27T21:25:02.901618+00:00", "meta": {"OBJECT_NAME": "IRIDIUM 33 DEB", "OBJECT_ID": "1997-051UN", "EPOCH": "2025-12-23T14:58:27.135552", "MEAN_MOTION": 15.03115552, "ECCENTRICITY": 0.00156026, "INCLINATION": 86.3353, "RA_OF_ASC_NODE": 307.468, "ARG_OF_PERICENTER": 2.5785, "MEAN_ANOMALY": 357.5526, "EPHEMERIS_TYPE": 0, "CLASSIFICATION_TYPE": "U", "NORAD_CAT_ID": 35929, "ELEMENT_SET_NO": 999, "REV_AT_EPOCH": 87943, "BSTAR": 0.0026490117, "MEAN_MOTION_DOT": 0.00035991, "MEAN_MOTION_DDOT": 0}, "tle": {"line1": "1 35929U 97051UN  25357.62392518  .00035991  00000+0  26490-2 0  9997", "line2": "2 35929  86.3353 307.4680 0015602   2.5785 357.5526 15.03115552879439"}}, "geometry": {"type": "Point", "coordinates": [-50.94301128695749, 44.52020030459637]}}, {"type": "Feature", "properties": {"norad_id": 36011, "name": "IRIDIUM 33 DEB", "group": "iridium-33-debris", "lat": -51.13054791113264, "lon": -146.5296693495155, "alt_km": 755.2879620574695, "timestamp": "2025-12-27T21:25:02.901628+00:00", "meta": {"OBJECT_NAME": "IRIDIUM 33 DEB", "OBJECT_ID": "1997-051US", "EPOCH": "2025-12-27T08:57:13.152960", "MEAN_MOTION": 14.41372572, "ECCENTRICITY": 0.0019178, "INCLINATION": 86.34, "RA_OF_ASC_NODE": 29.1386, "ARG_OF_PERICENTER": 167.3957, "MEAN_ANOMALY": 250.5603, "EPHEMERIS_TYPE": 0, "CLASSIFICATION_TYPE": "U", "NORAD_CAT_ID": 36011, "ELEMENT_SET_NO": 999, "REV_AT_EPOCH": 64751, "BSTAR": 0.00048804, "MEAN_MOTION_DOT": 1.603e-05, "MEAN_MOTION_DDOT": 0}, "tle": {"line1": "1 36011U 97051US  25361.37306890  .00001603  00000+0  48804-3 0  9992", "line2": "2 36011  86.3400  29.1386 0019178 167.3957 250.5603 14.41372572647517"}}, "geometry": {"type": "Point", "coordinates": [-146.5296693495155, -51.13054791113264]}}]}